NORAD_CAT_ID,OBJECT_NAME,OBJECT_TYPE,EPOCH,MEAN_MOTION,ECCENTRICITY,INCLINATION,RA_OF_ASC_NODE,ARG_OF_PERICENTER,MEAN_ANOMALY,BSTAR,MEAN_MOTION_DOT,MEAN_MOTION_DDOT,TLE_LINE0,TLE_LINE1,TLE_LINE2,SEMIMAJOR_AXIS,PERIOD,APOGEE,PERIGEE,DECAYED
49161.0,STARLINK-3080,PAYLOAD,2021-10-28 20:00:01,15.6975285,0.0003898,70.0006,1.1652,293.6907,324.3313,-0.00055549,-0.00066024,0.0,0 STARLINK-3080,1 49161U 21082AH  21301.83334491 -.00066024  00000-0 -55549-3 0  9997,2 49161  70.0006   1.1652 0003898 293.6907 324.3313 15.69752850  8202,6737.741,91.734,362.233,356.98,0.0
49161.0,STARLINK-3080,PAYLOAD,2021-10-28 22:00:00,15.69701958,0.0003906,70.0008,0.9309,291.3651,77.4493,0.00025544,0.00030335,0.0,0 STARLINK-3080,1 49161U 21082AH  21301.91667824  .00030335  00000-0  25544-3 0  9991,2 49161  70.0008   0.9309 0003906 291.3651  77.4493 15.69701958  3664,6737.887,91.737,362.384,357.12,0.0
49161.0,STARLINK-3080,PAYLOAD,2021-10-29 06:00:00,15.69748942,0.000386,70.0002,359.9853,295.8671,155.8343,-2.9594e-05,-3.744e-05,0.0,0 STARLINK-3080,1 49161U 21082AH  21302.25001157 -.00003744  00000-0 -29594-4 0  9996,2 49161  70.0002 359.9853 0003860 295.8671 155.8343 15.69748942  8269,6737.752,91.734,362.218,357.017,0.0
49161.0,STARLINK-3080,PAYLOAD,2021-10-29 14:00:01,15.69757491,0.0004185,70.0012,359.0568,294.1124,241.0303,-0.00017495,-0.00021056,0.0,0 STARLINK-3080,1 49161U 21082AH  21302.58335648 -.00021056  00000-0 -17495-3 0  9999,2 49161  70.0012 359.0568 0004185 294.1124 241.0303 15.69757491  3662,6737.728,91.734,362.413,356.773,0.0
49161.0,STARLINK-3080,PAYLOAD,2021-10-29 22:00:01,15.69753749,0.000406,70.0002,358.1114,284.3468,333.6694,-9.3796e-05,-0.00011398,0.0,0 STARLINK-3080,1 49161U 21082AH  21302.91668981 -.00011398  00000-0 -93796-4 0  9992,2 49161  70.0002 358.1114 0004060 284.3468 333.6694 15.69753749  3665,6737.739000000001,91.734,362.339,356.86800000000005,0.0
49161.0,STARLINK-3080,PAYLOAD,2021-10-30 14:00:01,15.6971185,0.0003862,70.0008,356.2463,297.3372,127.0577,0.00054411,0.00065153,0.0,0 STARLINK-3080,1 49161U 21082AH  21303.58335648  .00065153  00000-0  54411-3 0  9993,2 49161  70.0008 356.2463 0003862 297.3372 127.0577 15.69711850  8470,6737.858,91.737,362.326,357.121,0.0
49161.0,STARLINK-3080,PAYLOAD,2021-10-31 06:00:00,15.6974881,0.0003782,70.0003,354.3636,295.6041,294.853,-2.0313e-05,-2.637e-05,0.0,0 STARLINK-3080,1 49161U 21082AH  21304.25001157 -.00002637  00000-0 -20313-4 0  9998,2 49161  70.0003 354.3636 0003782 295.6041 294.8530 15.69748810  8570,6737.753000000002,91.734,362.166,357.069,0.0
49161.0,STARLINK-3080,PAYLOAD,2021-10-31 14:00:01,15.6973643,0.0003664,70.0011,353.4354,299.728,14.0541,0.00058075,0.0006966,0.0,0 STARLINK-3080,1 49161U 21082AH  21304.58334491  .00069660  00000-0  58075-3 0  9996,2 49161  70.0011 353.4354 0003664 299.7280  14.0541 15.69736430  8631,6737.788000000001,91.735,362.122,357.184,0.0
49161.0,STARLINK-3080,PAYLOAD,2021-10-31 22:00:01,15.69758799,0.0003525,70.0011,352.4985,294.6607,102.334,0.00027745,0.00033053,0.0,0 STARLINK-3080,1 49161U 21082AH  21304.91668981  .00033053  00000-0  27745-3 0  9994,2 49161  70.0011 352.4985 0003525 294.6607 102.3340 15.69758799  3672,6737.724,91.734,361.964,357.214,0.0
49161.0,STARLINK-3080,PAYLOAD,2021-11-01 06:00:00,15.69790795,0.0003759,70.0011,351.56199999999984,293.4057,186.668,-0.0006319,-0.00075111,0.0,0 STARLINK-3080,1 49161U 21082AH  21305.25001157 -.00075111  00000-0 -63190-3 0  9995,2 49161  70.0011 351.5620 0003759 293.4057 186.6680 15.69790795  8739,6737.6330000000025,91.732,362.03,356.965,0.0
49161.0,STARLINK-3080,PAYLOAD,2021-11-01 14:00:01,15.697193400000002,0.0004106,70.0005,350.6248,296.8964,266.3369,-3.814e-06,-6.67e-06,0.0,0 STARLINK-3080,1 49161U 21082AH  21305.58334491 -.00000667  00000-0 -38140-5 0  9994,2 49161  70.0005 350.6248 0004106 296.8964 266.3369 15.69719340  3685,6737.837,91.736,362.469,356.935,0.0
49161.0,STARLINK-3080,PAYLOAD,2021-11-01 22:00:00,15.69682492,0.0004025,70.0005,349.6879,292.1988,354.1296,0.00059628,0.00071389,0.0,0 STARLINK-3080,1 49161U 21082AH  21305.91667824  .00071389  00000-0  59628-3 0  9999,2 49161  70.0005 349.6879 0004025 292.1988 354.1296 15.69682492  8843,6737.941999999999,91.738,362.519,357.095,0.0
49161.0,STARLINK-3080,PAYLOAD,2021-11-02 14:00:01,15.69745983,0.0004228,70.0005,347.8138,295.9075,156.602,0.00013772,0.0001626,0.0,0 STARLINK-3080,1 49161U 21082AH  21306.58334491  .00016260  00000-0  13772-3 0  9991,2 49161  70.0005 347.8138 0004228 295.9075 156.6020 15.69745983  8940,6737.761,91.735,362.475,356.777,0.0
49161.0,STARLINK-3080,PAYLOAD,2021-11-02 22:00:00,15.69703563,0.0004229,70.0004,346.87699999999984,291.0713,244.5983,0.00034874,0.00041554,0.0,0 STARLINK-3080,1 49161U 21082AH  21306.91667824  .00041554  00000-0  34874-3 0  9997,2 49161  70.0004 346.8770 0004229 291.0713 244.5983 15.69703563  3675,6737.882,91.737,362.597,356.898,0.0
49161.0,STARLINK-3080,PAYLOAD,2021-11-03 04:00:00,15.69742136,0.0004229,70.0006,346.1747,289.7423,218.2329,0.00010677,0.00012551,0.0,0 STARLINK-3080,1 49161U 21082AH  21307.16667824  .00012551  00000-0  10677-3 0  9995,2 49161  70.0006 346.1747 0004229 289.7423 218.2329 15.69742136  9033,6737.772,91.735,362.486,356.787,0.0
49161.0,STARLINK-3080,PAYLOAD,2021-11-03 14:00:01,15.69734864,0.0004459,69.9997,345.0034,294.87,47.0074,0.00044974,0.00053801,0.0,0 STARLINK-3080,1 49161U 21082AH  21307.58334491  .00053801  00000-0  44974-3 0  9992,2 49161  69.9997 345.0034 0004459 294.8700  47.0074 15.69734864  3696,6737.793000000002,91.735,362.662,356.653,0.0
49161.0,STARLINK-3080,PAYLOAD,2021-11-03 22:00:00,15.69750487,0.000424,69.9996,344.0663,290.1688,134.8433,-2.2729e-05,-2.926e-05,0.0,0 STARLINK-3080,1 49161U 21082AH  21307.91667824 -.00002926  00000-0 -22729-4 0  9997,2 49161  69.9996 344.0663 0004240 290.1688 134.8433 15.69750487  3686,6737.748000000001,91.734,362.47,356.756,0.0
49161.0,STARLINK-3080,PAYLOAD,2021-11-04 06:00:00,15.69739312,0.0004153,69.9997,343.1291,291.4642,216.6769,-0.00017598,-0.00021163,0.0,0 STARLINK-3080,1 49161U 21082AH  21308.25001157 -.00021163  00000-0 -17598-3 0  9997,2 49161  69.9997 343.1291 0004153 291.4642 216.6769 15.69739312  9200,6737.78,91.735,362.443,356.847,0.0
49161.0,STARLINK-3080,PAYLOAD,2021-11-04 14:00:01,15.69741867,0.0004226,69.9993,342.1919,295.6486,295.6194,0.00047033,0.00056304,0.0,0 STARLINK-3080,1 49161U 21082AH  21308.58334491  .00056304  00000-0  47033-3 0  9993,2 49161  69.9993 342.1919 0004226 295.6486 295.6194 15.69741867  3677,6737.773,91.735,362.485,356.79,0.0
49161.0,STARLINK-3080,PAYLOAD,2021-11-04 22:00:00,15.69776088,0.0004018,69.9993,341.2553,291.5555,22.914,0.0010972,0.00133026,0.0,0 STARLINK-3080,1 49161U 21082AH  21308.91667824  .00133026  00000-0  10972-2 0  9997,2 49161  69.9993 341.2553 0004018 291.5555  22.9140 15.69776088  9314,6737.675,91.733,362.247,356.832,0.0
49161.0,STARLINK-3080,PAYLOAD,2021-11-05 04:00:00,15.69903216,0.0004115,69.9997,340.5524,290.1992,356.6575,-0.00051836,-0.00062041,0.0,0 STARLINK-3080,1 49161U 21082AH  21309.16667824 -.00062041  00000-0 -51836-3 0  9990,2 49161  69.9997 340.5524 0004115 290.1992 356.6575 15.69903216  9354,6737.311,91.725,361.948,356.403,0.0
49161.0,STARLINK-3080,PAYLOAD,2021-11-05 14:00:01,15.69683777,0.000397,69.9988,339.3808,296.2423,184.6139,0.0002492,0.00029564,0.0,0 STARLINK-3080,1 49161U 21082AH  21309.58334491  .00029564  00000-0  24920-3 0  9992,2 49161  69.9988 339.3808 0003970 296.2423 184.6139 15.69683777  9418,6737.939,91.738,362.479,357.129,0.0
49161.0,STARLINK-3080,PAYLOAD,2021-11-05 22:00:00,15.69678045,0.0003845,69.9995,338.4417,289.2123,274.712,0.00061079,0.0007312999999999,0.0,0 STARLINK-3080,1 49161U 21082AH  21309.91667824  .00073130  00000-0  61079-3 0  9992,2 49161  69.9995 338.4417 0003845 289.2123 274.7120 15.69678045  3723,6737.955,91.739,362.411,357.22900000000016,0.0
49161.0,STARLINK-3080,PAYLOAD,2021-11-06 04:00:01,15.69726241,0.0003878,69.999,337.7408,290.428,245.8225,-5.616100000000001e-05,-6.906e-05,0.0,0 STARLINK-3080,1 49161U 21082AH  21310.16668981 -.00006906  00000-0 -56161-4 0  9992,2 49161  69.9990 337.7408 0003878 290.4280 245.8225 15.69726241  9503,6737.816999999999,91.736,362.295,357.069,0.0
49161.0,STARLINK-3080,PAYLOAD,2021-11-06 08:00:03,15.69714225,0.0003965,69.9989,337.2723,293.4854,104.3807,8.7602e-05,0.00010244,0.0,0 STARLINK-3080,1 49161U 21082AH  21310.33336806  .00010244  00000-0  87602-4 0  9991,2 49161  69.9989 337.2723 0003965 293.4854 104.3807 15.69714225  3668,6737.852,91.736,362.388,357.045,0.0
49161.0,STARLINK-3080,PAYLOAD,2021-11-06 16:00:00,15.69756071,0.0003923,69.9986,336.3351,295.7902,185.0279,-0.00023592,-0.00028292,0.0,0 STARLINK-3080,1 49161U 21082AH  21310.66667824 -.00028292  00000-0 -23592-3 0  9995,2 49161  69.9986 336.3351 0003923 295.7902 185.0279 15.69756071  3669,6737.732,91.734,362.24,356.954,0.0
49161.0,STARLINK-3080,PAYLOAD,2021-11-06 20:00:01,15.69722031,0.0003812,69.9989,335.8666,292.5583,49.8963,0.00036591,0.0004365,0.0,0 STARLINK-3080,1 49161U 21082AH  21310.83335648  .00043650  00000-0  36591-3 0  9996,2 49161  69.9989 335.8666 0003812 292.5583  49.8963 15.69722031  9619,6737.829000000002,91.736,362.263,357.126,0.0
49161.0,STARLINK-3080,PAYLOAD,2021-11-07 14:00:01,15.69734882,0.0003881,69.9987,333.7582,296.6614,322.7833,1.4951e-05,1.572e-05,0.0,0 STARLINK-3080,1 49161U 21082AH  21311.58334491  .00001572  00000-0  14951-4 0  9998,2 49161  69.9987 333.7582 0003881 296.6614 322.7833 15.69734882  9736,6737.793000000002,91.735,362.272,357.043,0.0
49161.0,STARLINK-3080,PAYLOAD,2021-11-07 22:00:01,15.69688112,0.0003716,69.9992,332.8193,290.9332,51.6937,0.00092525,0.00111443,0.0,0 STARLINK-3080,1 49161U 21082AH  21311.91668981  .00111443  00000-0  92525-3 0  9990,2 49161  69.9992 332.8193 0003716 290.9332  51.6937 15.69688112  3664,6737.926,91.738,362.295,357.288,0.0
